GSAT0101 (GALILEO-PFM)  
1 37846U 11060A   24307.57072440 -.00000075  00000+0  00000+0 0  9992
2 37846  57.1218 357.7928 0001396 300.3341  59.7227  1.70475926 81033
GSAT0102 (GALILEO-FM2)  
1 37847U 11060B   24304.55021593 -.00000086  00000+0  00000+0 0  9993
2 37847  57.1224 357.8747 0002999 296.3844  55.3588  1.70475577 80980
GSAT0103 (GALILEO-FM3)  
1 38857U 12055A   24307.61011136  .00000073  00000+0  00000+0 0  9997
2 38857  55.4713 117.7994 0001947 251.8145 108.1847  1.70473624 74928
GSAT0201 (GALILEO 5)    
1 40128U 14050A   24309.22510202 -.00000040  00000+0  00000+0 0  9990
2 40128  49.5155 297.4249 1614665 156.7094 211.5319  1.85519609 67373
GSAT0202 (GALILEO 6)    
1 40129U 14050B   24307.32691125 -.00000054  00000+0  00000+0 0  9999
2 40129  49.5339 296.5802 1613937 157.4303 210.5668  1.85520370 69505
GSAT0203 (GALILEO 7)    
1 40544U 15017A   24307.93619360 -.00000074  00000+0  00000+0 0  9994
2 40544  56.9168 357.6980 0005680 253.8869 106.1209  1.70476253 59123
GSAT0204 (GALILEO 8)    
1 40545U 15017B   24307.60419166 -.00000075  00000+0  00000+0 0  9992
2 40545  56.9231 357.7231 0005694 244.2112 115.8003  1.70475805 22160
GSAT0205 (GALILEO 9)    
1 40889U 15045A   24307.37244051 -.00000003  00000+0  00000+0 0  9998
2 40889  55.1587 237.9536 0004523  21.3986 338.6243  1.70473046 56923
GSAT0206 (GALILEO 10)   
1 40890U 15045B   24308.17968741  .00000002  00000+0  00000+0 0  9996
2 40890  55.1577 237.9267 0002830  10.6211 349.3951  1.70473015 56961
GSAT0209 (GALILEO 12)   
1 41174U 15079A   24308.34921813  .00000072  00000+0  00000+0 0  9994
2 41174  55.4935 117.4898 0002005 357.6788   2.3361  1.70474330 54709
GSAT0208 (GALILEO 11)   
1 41175U 15079B   24309.15564930  .00000072  00000+0  00000+0 0  9998
2 41175  55.4888 117.4650 0001563  13.9345 346.0823  1.70474201 55138
GSAT0211 (GALILEO 14)   
1 41549U 16030A   24308.10540867  .00000002  00000+0  00000+0 0  9991
2 41549  55.3060 237.9549 0003676 344.6232  15.3752  1.70472994 52596
GSAT0210 (GALILEO 13)   
1 41550U 16030B   24307.77685232  .00000000  00000+0  00000+0 0  9999
2 41550  55.3058 237.9622 0002432 248.5988 111.3823  1.70473499 52582
GSAT0207 (GALILEO 15)   
1 41859U 16069A   24307.46959992  .00000072  00000+0  00000+0 0  9995
2 41859  55.1562 117.4818 0001689 323.0455  36.9634  1.70474256 49313
GSAT0212 (GALILEO 16)   
1 41860U 16069B   24309.08347720  .00000071  00000+0  00000+0 0  9996
2 41860  55.1551 117.4330 0002114  37.9679 322.0598  1.70474457 49596
GSAT0213 (GALILEO 17)   
1 41861U 16069C   24307.69206995  .00000072  00000+0  00000+0 0  9991
2 41861  55.1559 117.4786 0001678 267.7778  92.2223  1.70474845 49443
GSAT0214 (GALILEO 18)   
1 41862U 16069D   24309.59720307  .00000071  00000+0  00000+0 0  9990
2 41862  55.1554 117.4192 0000761 264.5664  95.4361  1.70474400 49592
GSAT0215 (GALILEO 19)   
1 43055U 17079A   24308.91362019  .00000007  00000+0  00000+0 0  9994
2 43055  55.2831 237.7525 0002111 294.1117  65.8820  1.70473740 42923
GSAT0216 (GALILEO 20)   
1 43056U 17079B   24307.44544370 -.00000002  00000+0  00000+0 0  9990
2 43056  55.2842 237.7928 0003644 294.2486  65.7182  1.70473900 42912
GSAT0217 (GALILEO 21)   
1 43057U 17079C   24308.25256010  .00000003  00000+0  00000+0 0  9992
2 43057  55.2816 237.7692 0003380 310.7506  49.2311  1.70473850 42911
GSAT0218 (GALILEO 22)   
1 43058U 17079D   24308.47261530  .00000004  00000+0  00000+0 0  9991
2 43058  55.2816 237.7608 0004089 286.8752  73.0927  1.70473864 42948
GSAT0221 (GALILEO 25)   
1 43564U 18060A   24308.96037686 -.00000070  00000+0  00000+0 0  9995
2 43564  57.2966 357.7058 0005585 268.5104  91.4960  1.70476123 39106
GSAT0222 (GALILEO 26)   
1 43565U 18060B   24308.59250922 -.00000071  00000+0  00000+0 0  9996
2 43565  57.3003 357.7179 0005441 244.7427 115.2715  1.70475911 39140
GSAT0219 (GALILEO 23)   
1 43566U 18060C   24307.05443472 -.00000076  00000+0  00000+0 0  9996
2 43566  57.2985 357.7610 0005200 271.7378  88.2732  1.70476190 39099
GSAT0220 (GALILEO 24)   
1 43567U 18060D   24307.27515567 -.00000075  00000+0  00000+0 0  9995
2 43567  57.2994 357.7558 0004702 266.2753  93.7417  1.70476309 39085
GSAT0223 (GALILEO 27)   
1 49809U 21116A   24307.12201743 -.00000076  00000+0  00000+0 0  9999
2 49809  57.2898 357.6532 0004154 226.2424 130.3125  1.70476437 18089
GSAT0224 (GALILEO 28)   
1 49810U 21116B   24308.12328456 -.00000073  00000+0  00000+0 0  9990
2 49810  57.2907 357.6249 0003369 227.4109 136.1695  1.70476398 18135
GSAT0225 (GALILEO 29)   
1 59598U 24079A   24307.84531435  .00000071  00000+0  00000+0 0  9993
2 59598  54.7735 117.6280 0002690 159.7824  24.1262  1.70474738  3233
GSAT0227 (GALILEO 30)   
1 59600U 24079C   24307.14244691  .00000071  00000+0  00000+0 0  9995
2 59600  54.7676 117.6477 0003868 115.2057 244.8576  1.70474612  3276
GSAT0232 (GALILEO 32)   
1 61182U 24167A   24301.00687480 -.00000036  00000+0  00000+0 0  9999
2 61182  55.3980 237.7111 0016456 274.7209  85.0739  1.73176900   674
GSAT0226 (GALILEO 31)   
1 61183U 24167B   24301.95071725 -.00000035  00000+0  00000+0 0  9992
2 61183  55.3944 237.7060 0033143  97.6119 262.7460  1.71381502   671
